[
  {
    "id": "ar-rabi",
    "name_ar": "الربيع",
    "name_en": "Ar Rabi",
    "municipality": "بلدية الشمال",
    "district": "شمال الرياض",
    "description_ar": "حي راقٍ حديث يتميز بتخطيط عمراني منظم وفلل سكنية فاخرة وقربه من طريق الملك فهد",
    "lat": 24.8233,
    "lng": 46.6497,
    "character": "سكني راقي"
  },
  {
    "id": "an-nada",
    "name_ar": "الندى",
    "name_en": "An Nada",
    "municipality": "بلدية الشمال",
    "district": "شمال الرياض",
    "description_ar": "حي سكني هادئ في شمال الرياض يتميز بالمساحات الخضراء والتخطيط الجيد",
    "lat": 24.8401,
    "lng": 46.6298,
    "character": "سكني"
  },
  {
    "id": "as-sahafah",
    "name_ar": "الصحافة",
    "name_en": "As Sahafah",
    "municipality": "بلدية الشمال",
    "district": "شمال الرياض",
    "description_ar": "حي حيوي في شمال الرياض يضم مجمعات تجارية ومطاعم متنوعة وقريب من الملك عبدالله المالي",
    "lat": 24.8106,
    "lng": 46.6759,
    "character": "سكني تجاري"
  },
  {
    "id": "an-narjis",
    "name_ar": "النرجس",
    "name_en": "An Narjis",
    "municipality": "بلدية الشمال",
    "district": "شمال الرياض",
    "description_ar": "حي سكني جديد وراقٍ في شمال الرياض يتميز بالفلل الحديثة والتخطيط العصري",
    "lat": 24.856,
    "lng": 46.665,
    "character": "سكني جديد"
  },
  {
    "id": "al-arid",
    "name_ar": "العارض",
    "name_en": "Al Arid",
    "municipality": "بلدية الشمال",
    "district": "شمال الرياض",
    "description_ar": "حي متنامٍ في أقصى شمال الرياض يشهد نمواً عمرانياً سريعاً",
    "lat": 24.87,
    "lng": 46.635,
    "character": "سكني جديد"
  },
  {
    "id": "an-nafl",
    "name_ar": "النفل",
    "name_en": "An Nafl",
    "municipality": "بلدية الشمال",
    "district": "شمال الرياض",
    "description_ar": "حي سكني مميز يقع على طريق الملك فهد ويضم عدداً من المطاعم والكافيهات الراقية",
    "lat": 24.795,
    "lng": 46.645,
    "character": "سكني"
  },
  {
    "id": "al-aqiq",
    "name_ar": "العقيق",
    "name_en": "Al Aqiq",
    "municipality": "بلدية الشمال",
    "district": "شمال الرياض",
    "description_ar": "حي راقٍ يضم مجمعات تجارية وسكنية فاخرة ويعتبر من أرقى أحياء شمال الرياض",
    "lat": 24.787,
    "lng": 46.627,
    "character": "سكني راقي"
  },
  {
    "id": "al-wadi",
    "name_ar": "الوادي",
    "name_en": "Al Wadi",
    "municipality": "بلدية الشمال",
    "district": "شمال الرياض",
    "description_ar": "حي سكني مميز بموقعه الاستراتيجي على تقاطع طريق الملك فهد مع الدائري الشمالي",
    "lat": 24.775,
    "lng": 46.635,
    "character": "سكني"
  },
  {
    "id": "al-ghadir",
    "name_ar": "الغدير",
    "name_en": "Al Ghadir",
    "municipality": "بلدية الشمال",
    "district": "شمال الرياض",
    "description_ar": "حي سكني هادئ يتميز بقربه من المرافق الخدمية والتجارية",
    "lat": 24.805,
    "lng": 46.615,
    "character": "سكني"
  },
  {
    "id": "al-yasmin",
    "name_ar": "الياسمين",
    "name_en": "Al Yasmin",
    "municipality": "بلدية الشمال",
    "district": "شمال الرياض",
    "description_ar": "حي عائلي راقٍ يتميز بالحدائق والمساحات الخضراء والمطاعم العائلية المتنوعة",
    "lat": 24.828,
    "lng": 46.61,
    "character": "سكني راقي"
  },
  {
    "id": "al-falah",
    "name_ar": "الفلاح",
    "name_en": "Al Falah",
    "municipality": "بلدية الشمال",
    "district": "شمال الرياض",
    "description_ar": "حي سكني يتميز بتنوع خدماته وقربه من المناطق التجارية",
    "lat": 24.8,
    "lng": 46.68,
    "character": "سكني"
  },
  {
    "id": "banban",
    "name_ar": "بنبان",
    "name_en": "Banban",
    "municipality": "بلدية الشمال",
    "district": "شمال الرياض",
    "description_ar": "ضاحية شمالية تشهد تطوراً عمرانياً وتضم مشروع الطاقة الشمسية الضخم",
    "lat": 24.92,
    "lng": 46.6,
    "character": "ضاحية"
  },
  {
    "id": "al-qirawan",
    "name_ar": "القيروان",
    "name_en": "Al Qirawan",
    "municipality": "بلدية الشمال",
    "district": "شمال الرياض",
    "description_ar": "حي جديد في شمال الرياض يتميز بالتخطيط الحديث والمجمعات السكنية الجديدة",
    "lat": 24.84,
    "lng": 46.58,
    "character": "سكني جديد"
  },
  {
    "id": "hittin",
    "name_ar": "حطين",
    "name_en": "Hittin",
    "municipality": "بلدية الشمال",
    "district": "شمال الرياض",
    "description_ar": "حي راقٍ ومميز يضم فلل فاخرة ويعتبر من أغلى أحياء الرياض وأكثرها طلباً",
    "lat": 24.778,
    "lng": 46.605,
    "character": "سكني راقي"
  },
  {
    "id": "al-malqa",
    "name_ar": "الملقا",
    "name_en": "Al Malqa",
    "municipality": "بلدية الشمال",
    "district": "شمال الرياض",
    "description_ar": "حي راقٍ يضم أفخم المطاعم والكافيهات في الرياض ويعتبر وجهة رئيسية للعائلات",
    "lat": 24.81,
    "lng": 46.595,
    "character": "سكني راقي"
  },
  {
    "id": "king-salman",
    "name_ar": "الملك سلمان",
    "name_en": "King Salman",
    "municipality": "بلدية الشمال",
    "district": "شمال الرياض",
    "description_ar": "حي جديد يشهد مشاريع تطويرية كبيرة",
    "lat": 24.8,
    "lng": 46.6,
    "character": "جديد"
  },
  {
    "id": "al-reem",
    "name_ar": "الريم",
    "name_en": "Al Reem",
    "municipality": "بلدية الشمال",
    "district": "شمال الرياض",
    "description_ar": "حي سكني جديد في شمال الرياض",
    "lat": 24.85,
    "lng": 46.59,
    "character": "سكني جديد"
  },
  {
    "id": "ar-rawdah",
    "name_ar": "الروضة",
    "name_en": "Ar Rawdah",
    "municipality": "بلدية الروضة",
    "district": "شرق الرياض",
    "description_ar": "حي سكني عريق في شرق الرياض يتميز بالهدوء والخدمات المتكاملة",
    "lat": 24.72,
    "lng": 46.785,
    "character": "سكني"
  },
  {
    "id": "ar-rimal",
    "name_ar": "الرمال",
    "name_en": "Ar Rimal",
    "municipality": "بلدية الروضة",
    "district": "شرق الرياض",
    "description_ar": "حي سكني واسع في شرق الرياض يضم مجمعات سكنية حديثة",
    "lat": 24.74,
    "lng": 46.83,
    "character": "سكني"
  },
  {
    "id": "al-munsiyah",
    "name_ar": "المونسية",
    "name_en": "Al Munsiyah",
    "municipality": "بلدية الروضة",
    "district": "شرق الرياض",
    "description_ar": "حي سكني في شرق الرياض يتميز بالتنوع العمراني",
    "lat": 24.75,
    "lng": 46.81,
    "character": "سكني"
  },
  {
    "id": "qurtubah",
    "name_ar": "قرطبة",
    "name_en": "Qurtubah",
    "municipality": "بلدية الروضة",
    "district": "شرق الرياض",
    "description_ar": "حي مميز يضم فنادق فاخرة كالفيرمونت ومجمعات تجارية",
    "lat": 24.735,
    "lng": 46.77,
    "character": "سكني تجاري"
  },
  {
    "id": "al-janadriyah",
    "name_ar": "الجنادرية",
    "name_en": "Al Janadriyah",
    "municipality": "بلدية الروضة",
    "district": "شرق الرياض",
    "description_ar": "منطقة ثقافية وتراثية تستضيف المهرجان الوطني للتراث والثقافة",
    "lat": 24.78,
    "lng": 46.87,
    "character": "ثقافي"
  },
  {
    "id": "al-qadisiyah",
    "name_ar": "القادسية",
    "name_en": "Al Qadisiyah",
    "municipality": "بلدية الروضة",
    "district": "شرق الرياض",
    "description_ar": "حي سكني في شرق الرياض",
    "lat": 24.71,
    "lng": 46.79,
    "character": "سكني"
  },
  {
    "id": "al-yarmuk",
    "name_ar": "اليرموك",
    "name_en": "Al Yarmuk",
    "municipality": "بلدية الروضة",
    "district": "شرق الرياض",
    "description_ar": "حي سكني عريق في شرق الرياض",
    "lat": 24.7,
    "lng": 46.78,
    "character": "سكني"
  },
  {
    "id": "ghirnatah",
    "name_ar": "غرناطة",
    "name_en": "Ghirnatah",
    "municipality": "بلدية الروضة",
    "district": "شرق الرياض",
    "description_ar": "حي حيوي يضم غرناطة مول وعدد من المطاعم والمقاهي المميزة",
    "lat": 24.725,
    "lng": 46.76,
    "character": "سكني تجاري"
  },
  {
    "id": "ishbiliyah",
    "name_ar": "إشبيلية",
    "name_en": "Ishbiliyah",
    "municipality": "بلدية الروضة",
    "district": "شرق الرياض",
    "description_ar": "حي سكني في شرق الرياض",
    "lat": 24.715,
    "lng": 46.75,
    "character": "سكني"
  },
  {
    "id": "al-hamra",
    "name_ar": "الحمراء",
    "name_en": "Al Hamra",
    "municipality": "بلدية الروضة",
    "district": "شرق الرياض",
    "description_ar": "حي سكني في شرق الرياض يتميز بموقعه على طريق خريص",
    "lat": 24.705,
    "lng": 46.77,
    "character": "سكني"
  },
  {
    "id": "al-muayzilah",
    "name_ar": "المعيزلية",
    "name_en": "Al Muayzilah",
    "municipality": "بلدية الروضة",
    "district": "شرق الرياض",
    "description_ar": "حي سكني في شرق الرياض",
    "lat": 24.755,
    "lng": 46.85,
    "character": "سكني"
  },
  {
    "id": "al-khaleej",
    "name_ar": "الخليج",
    "name_en": "Al Khaleej",
    "municipality": "بلدية الروضة",
    "district": "شرق الرياض",
    "description_ar": "حي سكني في شرق الرياض",
    "lat": 24.73,
    "lng": 46.795,
    "character": "سكني"
  },
  {
    "id": "king-faisal",
    "name_ar": "الملك فيصل",
    "name_en": "King Faisal",
    "municipality": "بلدية الروضة",
    "district": "شرق الرياض",
    "description_ar": "حي سكني يحمل اسم الملك فيصل في شرق الرياض",
    "lat": 24.718,
    "lng": 46.775,
    "character": "سكني"
  },
  {
    "id": "al-quds",
    "name_ar": "القدس",
    "name_en": "Al Quds",
    "municipality": "بلدية الروضة",
    "district": "شرق الرياض",
    "description_ar": "حي سكني في شرق الرياض",
    "lat": 24.708,
    "lng": 46.785,
    "character": "سكني"
  },
  {
    "id": "an-nahdah",
    "name_ar": "النهضة",
    "name_en": "An Nahdah",
    "municipality": "بلدية الروضة",
    "district": "شرق الرياض",
    "description_ar": "حي سكني متطور في شرق الرياض",
    "lat": 24.745,
    "lng": 46.775,
    "character": "سكني"
  },
  {
    "id": "al-andalus",
    "name_ar": "الأندلس",
    "name_en": "Al Andalus",
    "municipality": "بلدية الروضة",
    "district": "شرق الرياض",
    "description_ar": "حي سكني في شرق الرياض",
    "lat": 24.735,
    "lng": 46.75,
    "character": "سكني"
  },
  {
    "id": "al-olaya",
    "name_ar": "العليا",
    "name_en": "Al Olaya",
    "municipality": "بلدية العليا",
    "district": "وسط الرياض",
    "description_ar": "القلب التجاري للرياض يضم برج المملكة والفيصلية وأفخم المطاعم والفنادق العالمية",
    "lat": 24.69,
    "lng": 46.685,
    "character": "تجاري راقي"
  },
  {
    "id": "as-sulimaniyah",
    "name_ar": "السليمانية",
    "name_en": "As Sulimaniyah",
    "municipality": "بلدية العليا",
    "district": "وسط الرياض",
    "description_ar": "حي تجاري سكني مميز يضم شارع التحلية ومطاعم ومقاهي متنوعة",
    "lat": 24.705,
    "lng": 46.695,
    "character": "سكني تجاري"
  },
  {
    "id": "king-abdulaziz",
    "name_ar": "الملك عبد العزيز",
    "name_en": "King Abdulaziz",
    "municipality": "بلدية العليا",
    "district": "وسط الرياض",
    "description_ar": "حي سكني يحمل اسم المؤسس في وسط الرياض",
    "lat": 24.715,
    "lng": 46.68,
    "character": "سكني"
  },
  {
    "id": "king-abdullah",
    "name_ar": "الملك عبد الله",
    "name_en": "King Abdullah",
    "municipality": "بلدية العليا",
    "district": "وسط الرياض",
    "description_ar": "حي سكني تجاري في وسط الرياض",
    "lat": 24.725,
    "lng": 46.675,
    "character": "سكني تجاري"
  },
  {
    "id": "al-wurud",
    "name_ar": "الورود",
    "name_en": "Al Wurud",
    "municipality": "بلدية العليا",
    "district": "وسط الرياض",
    "description_ar": "حي سكني هادئ يتميز بقربه من المناطق التجارية الرئيسية",
    "lat": 24.735,
    "lng": 46.685,
    "character": "سكني"
  },
  {
    "id": "salah-ad-din",
    "name_ar": "صلاح الدين",
    "name_en": "Salah Ad Din",
    "municipality": "بلدية العليا",
    "district": "وسط الرياض",
    "description_ar": "حي سكني مميز في وسط الرياض",
    "lat": 24.72,
    "lng": 46.71,
    "character": "سكني"
  },
  {
    "id": "king-fahd",
    "name_ar": "الملك فهد",
    "name_en": "King Fahd",
    "municipality": "بلدية العليا",
    "district": "وسط الرياض",
    "description_ar": "حي سكني يحمل اسم الملك فهد ويتميز بموقعه المركزي",
    "lat": 24.73,
    "lng": 46.67,
    "character": "سكني"
  },
  {
    "id": "al-mursalat",
    "name_ar": "المرسلات",
    "name_en": "Al Mursalat",
    "municipality": "بلدية العليا",
    "district": "وسط الرياض",
    "description_ar": "حي سكني في وسط الرياض",
    "lat": 24.74,
    "lng": 46.665,
    "character": "سكني"
  },
  {
    "id": "an-nuzhah",
    "name_ar": "النزهة",
    "name_en": "An Nuzhah",
    "municipality": "بلدية العليا",
    "district": "وسط الرياض",
    "description_ar": "حي سكني يتميز بالهدوء والمساحات الخضراء",
    "lat": 24.75,
    "lng": 46.69,
    "character": "سكني"
  },
  {
    "id": "al-mughrizat",
    "name_ar": "المغرزات",
    "name_en": "Al Mughrizat",
    "municipality": "بلدية العليا",
    "district": "وسط الرياض",
    "description_ar": "حي سكني مميز شمال الملز",
    "lat": 24.745,
    "lng": 46.705,
    "character": "سكني"
  },
  {
    "id": "al-muruj",
    "name_ar": "المروج",
    "name_en": "Al Muruj",
    "municipality": "بلدية العليا",
    "district": "وسط الرياض",
    "description_ar": "حي سكني مميز في شمال وسط الرياض يتميز بالتخطيط الجيد",
    "lat": 24.755,
    "lng": 46.675,
    "character": "سكني"
  },
  {
    "id": "al-masif",
    "name_ar": "المصيف",
    "name_en": "Al Masif",
    "municipality": "بلدية العليا",
    "district": "وسط الرياض",
    "description_ar": "حي سكني يتميز بموقعه القريب من المراكز التجارية",
    "lat": 24.76,
    "lng": 46.665,
    "character": "سكني"
  },
  {
    "id": "at-taawun",
    "name_ar": "التعاون",
    "name_en": "At Taawun",
    "municipality": "بلدية العليا",
    "district": "وسط الرياض",
    "description_ar": "حي سكني تجاري نشط",
    "lat": 24.765,
    "lng": 46.675,
    "character": "سكني تجاري"
  },
  {
    "id": "al-izdihar",
    "name_ar": "الإزدهار",
    "name_en": "Al Izdihar",
    "municipality": "بلدية العليا",
    "district": "وسط الرياض",
    "description_ar": "حي سكني حيوي في شمال شرق وسط الرياض",
    "lat": 24.75,
    "lng": 46.72,
    "character": "سكني"
  },
  {
    "id": "kafd",
    "name_ar": "كافد",
    "name_en": "KAFD",
    "municipality": "بلدية العليا",
    "district": "وسط الرياض",
    "description_ar": "مركز الملك عبدالله المالي - أيقونة معمارية تضم أبراجاً ضخمة ومطاعم عالمية وفنادق فاخرة",
    "lat": 24.767,
    "lng": 46.643,
    "character": "مالي تجاري"
  },
  {
    "id": "al-urubah",
    "name_ar": "العروبة",
    "name_en": "Al Urubah",
    "municipality": "بلدية العليا",
    "district": "وسط الرياض",
    "description_ar": "حي سكني في وسط الرياض",
    "lat": 24.7,
    "lng": 46.7,
    "character": "سكني"
  },
  {
    "id": "al-maathar",
    "name_ar": "المعذر",
    "name_en": "Al Maathar",
    "municipality": "بلدية المعذر",
    "district": "غرب الرياض",
    "description_ar": "حي مميز يجمع بين السكني والتجاري ويضم عدداً من المقاهي الراقية",
    "lat": 24.695,
    "lng": 46.66,
    "character": "سكني تجاري"
  },
  {
    "id": "al-maathar-north",
    "name_ar": "المعذر الشمالي",
    "name_en": "Al Maathar North",
    "municipality": "بلدية المعذر",
    "district": "غرب الرياض",
    "description_ar": "امتداد حي المعذر شمالاً يضم مقاهي ومطاعم متنوعة",
    "lat": 24.705,
    "lng": 46.66,
    "character": "سكني تجاري"
  },
  {
    "id": "al-muhammadiyah",
    "name_ar": "المحمدية",
    "name_en": "Al Muhammadiyah",
    "municipality": "بلدية المعذر",
    "district": "غرب الرياض",
    "description_ar": "حي سكني مميز غرب الرياض يتميز بالهدوء والخدمات",
    "lat": 24.71,
    "lng": 46.64,
    "character": "سكني"
  },
  {
    "id": "ar-rahmaniyah",
    "name_ar": "الرحمانية",
    "name_en": "Ar Rahmaniyah",
    "municipality": "بلدية المعذر",
    "district": "غرب الرياض",
    "description_ar": "حي سكني هادئ في غرب الرياض",
    "lat": 24.725,
    "lng": 46.63,
    "character": "سكني"
  },
  {
    "id": "ar-raid",
    "name_ar": "الرائد",
    "name_en": "Ar Raid",
    "municipality": "بلدية المعذر",
    "district": "غرب الرياض",
    "description_ar": "حي سكني مميز في غرب الرياض",
    "lat": 24.72,
    "lng": 46.65,
    "character": "سكني"
  },
  {
    "id": "an-nakheel",
    "name_ar": "النخيل",
    "name_en": "An Nakheel",
    "municipality": "بلدية المعذر",
    "district": "غرب الرياض",
    "description_ar": "حي راقٍ يضم نخيل مول ويو ووك ومطاعم ومقاهي عالمية المستوى",
    "lat": 24.735,
    "lng": 46.635,
    "character": "سكني راقي"
  },
  {
    "id": "umm-al-hamam-east",
    "name_ar": "أم الحمام الشرقي",
    "name_en": "Umm Al Hamam East",
    "municipality": "بلدية المعذر",
    "district": "غرب الرياض",
    "description_ar": "حي سكني عريق في غرب وسط الرياض",
    "lat": 24.68,
    "lng": 46.65,
    "character": "سكني"
  },
  {
    "id": "umm-al-hamam-west",
    "name_ar": "أم الحمام الغربي",
    "name_en": "Umm Al Hamam West",
    "municipality": "بلدية المعذر",
    "district": "غرب الرياض",
    "description_ar": "حي سكني يضم وادي حنيفة والحي الدبلوماسي",
    "lat": 24.68,
    "lng": 46.635,
    "character": "سكني"
  },
  {
    "id": "as-safarat",
    "name_ar": "السفارات",
    "name_en": "As Safarat",
    "municipality": "بلدية عرقة",
    "district": "غرب الرياض",
    "description_ar": "حي دبلوماسي راقٍ يضم السفارات والقنصليات وحدائق جميلة",
    "lat": 24.665,
    "lng": 46.62,
    "character": "دبلوماسي راقي"
  },
  {
    "id": "al-mahdiyah",
    "name_ar": "المهدية",
    "name_en": "Al Mahdiyah",
    "municipality": "بلدية عرقة",
    "district": "غرب الرياض",
    "description_ar": "حي المهدية في غرب الرياض",
    "lat": 24.65,
    "lng": 46.58,
    "character": "سكني"
  },
  {
    "id": "irqah",
    "name_ar": "عرقة",
    "name_en": "Irqah",
    "municipality": "بلدية عرقة",
    "district": "غرب الرياض",
    "description_ar": "حي سكني في غرب الرياض يتميز بالفلل والقصور وقربه من وادي حنيفة",
    "lat": 24.67,
    "lng": 46.57,
    "character": "سكني"
  },
  {
    "id": "dhahrat-laban",
    "name_ar": "ظهرة لبن",
    "name_en": "Dhahrat Laban",
    "municipality": "بلدية عرقة",
    "district": "غرب الرياض",
    "description_ar": "حي سكني في غرب الرياض يتطور بشكل سريع",
    "lat": 24.64,
    "lng": 46.59,
    "character": "سكني"
  },
  {
    "id": "al-khuzama",
    "name_ar": "الخزامى",
    "name_en": "Al Khuzama",
    "municipality": "بلدية عرقة",
    "district": "غرب الرياض",
    "description_ar": "حي راقٍ جداً يعتبر من أفخم أحياء الرياض ويضم قصوراً فاخرة",
    "lat": 24.675,
    "lng": 46.61,
    "character": "سكني راقي"
  },
  {
    "id": "diplomatic-quarter",
    "name_ar": "الحي الدبلوماسي",
    "name_en": "Diplomatic Quarter",
    "municipality": "بلدية عرقة",
    "district": "غرب الرياض",
    "description_ar": "منطقة دبلوماسية راقية تضم السفارات وحدائق وملاعب ومرافق ترفيهية فاخرة",
    "lat": 24.67,
    "lng": 46.625,
    "character": "دبلوماسي راقي"
  },
  {
    "id": "an-naseem-east",
    "name_ar": "النسيم الشرقي",
    "name_en": "An Naseem East",
    "municipality": "بلدية النسيم",
    "district": "شرق الرياض",
    "description_ar": "حي شعبي يتميز بالأسواق الشعبية والمطاعم البخارية",
    "lat": 24.67,
    "lng": 46.77,
    "character": "شعبي"
  },
  {
    "id": "an-naseem-west",
    "name_ar": "النسيم الغربي",
    "name_en": "An Naseem West",
    "municipality": "بلدية النسيم",
    "district": "شرق الرياض",
    "description_ar": "حي سكني شعبي في شرق الرياض",
    "lat": 24.67,
    "lng": 46.75,
    "character": "شعبي"
  },
  {
    "id": "as-salam",
    "name_ar": "السلام",
    "name_en": "As Salam",
    "municipality": "بلدية النسيم",
    "district": "شرق الرياض",
    "description_ar": "حي سكني مميز في شرق الرياض يتميز بالتنوع السكاني",
    "lat": 24.69,
    "lng": 46.78,
    "character": "سكني"
  },
  {
    "id": "ar-rayyan",
    "name_ar": "الريان",
    "name_en": "Ar Rayyan",
    "municipality": "بلدية النسيم",
    "district": "شرق الرياض",
    "description_ar": "حي سكني في شرق الرياض",
    "lat": 24.68,
    "lng": 46.76,
    "character": "سكني"
  },
  {
    "id": "ar-rawabi",
    "name_ar": "الروابي",
    "name_en": "Ar Rawabi",
    "municipality": "بلدية النسيم",
    "district": "شرق الرياض",
    "description_ar": "حي سكني في شرق الرياض",
    "lat": 24.685,
    "lng": 46.79,
    "character": "سكني"
  },
  {
    "id": "an-nadheem",
    "name_ar": "النظيم",
    "name_en": "An Nadheem",
    "municipality": "بلدية النسيم",
    "district": "شرق الرياض",
    "description_ar": "حي سكني في شرق الرياض يضم أسواقاً ومطاعم متنوعة",
    "lat": 24.7,
    "lng": 46.81,
    "character": "سكني"
  },
  {
    "id": "al-manar",
    "name_ar": "المنار",
    "name_en": "Al Manar",
    "municipality": "بلدية النسيم",
    "district": "شرق الرياض",
    "description_ar": "حي سكني في شرق الرياض",
    "lat": 24.695,
    "lng": 46.8,
    "character": "سكني"
  },
  {
    "id": "an-nadwa",
    "name_ar": "الندوة",
    "name_en": "An Nadwa",
    "municipality": "بلدية النسيم",
    "district": "شرق الرياض",
    "description_ar": "حي سكني في أقصى شرق الرياض",
    "lat": 24.71,
    "lng": 46.82,
    "character": "سكني"
  },
  {
    "id": "ash-shuhada",
    "name_ar": "الشهداء",
    "name_en": "Ash Shuhada",
    "municipality": "بلدية النسيم",
    "district": "شرق الرياض",
    "description_ar": "حي سكني في شرق الرياض",
    "lat": 24.675,
    "lng": 46.785,
    "character": "سكني"
  },
  {
    "id": "jarir",
    "name_ar": "جرير",
    "name_en": "Jarir",
    "municipality": "بلدية الملز",
    "district": "وسط الرياض",
    "description_ar": "حي تجاري يضم شارع جرير الشهير للإلكترونيات والكتب",
    "lat": 24.695,
    "lng": 46.72,
    "character": "تجاري"
  },
  {
    "id": "ar-rabwah",
    "name_ar": "الربوة",
    "name_en": "Ar Rabwah",
    "municipality": "بلدية الملز",
    "district": "وسط الرياض",
    "description_ar": "حي سكني عريق في وسط الرياض",
    "lat": 24.685,
    "lng": 46.73,
    "character": "سكني"
  },
  {
    "id": "az-zahra",
    "name_ar": "الزهراء",
    "name_en": "Az Zahra",
    "municipality": "بلدية الملز",
    "district": "وسط الرياض",
    "description_ar": "حي الزهراء في وسط الرياض",
    "lat": 24.68,
    "lng": 46.725,
    "character": "سكني"
  },
  {
    "id": "as-safa",
    "name_ar": "الصفا",
    "name_en": "As Safa",
    "municipality": "بلدية الملز",
    "district": "وسط الرياض",
    "description_ar": "حي الصفا في وسط الرياض",
    "lat": 24.675,
    "lng": 46.72,
    "character": "سكني"
  },
  {
    "id": "ad-dubbat",
    "name_ar": "الضباط",
    "name_en": "Ad Dubbat",
    "municipality": "بلدية الملز",
    "district": "وسط الرياض",
    "description_ar": "حي سكني في وسط الرياض",
    "lat": 24.69,
    "lng": 46.715,
    "character": "سكني"
  },
  {
    "id": "malaz",
    "name_ar": "الملز",
    "name_en": "Malaz",
    "municipality": "بلدية الملز",
    "district": "وسط الرياض",
    "description_ar": "من أقدم وأشهر أحياء الرياض يضم استاد الملز والمعالم التاريخية والأسواق الشعبية",
    "lat": 24.68,
    "lng": 46.71,
    "character": "سكني تجاري"
  },
  {
    "id": "al-wizarat",
    "name_ar": "الوزارات",
    "name_en": "Al Wizarat",
    "municipality": "بلدية الملز",
    "district": "وسط الرياض",
    "description_ar": "حي حكومي يضم مقرات الوزارات والجهات الحكومية",
    "lat": 24.67,
    "lng": 46.705,
    "character": "حكومي"
  },
  {
    "id": "al-faruq",
    "name_ar": "الفاروق",
    "name_en": "Al Faruq",
    "municipality": "بلدية الملز",
    "district": "وسط الرياض",
    "description_ar": "حي الفاروق في وسط الرياض",
    "lat": 24.665,
    "lng": 46.715,
    "character": "سكني"
  },
  {
    "id": "al-amal",
    "name_ar": "العمل",
    "name_en": "Al Amal",
    "municipality": "بلدية الملز",
    "district": "وسط الرياض",
    "description_ar": "حي العمل في وسط الرياض",
    "lat": 24.675,
    "lng": 46.735,
    "character": "سكني"
  },
  {
    "id": "thulaim",
    "name_ar": "ثليم",
    "name_en": "Thulaim",
    "municipality": "بلدية الملز",
    "district": "وسط الرياض",
    "description_ar": "حي ثليم في وسط الرياض",
    "lat": 24.67,
    "lng": 46.7,
    "character": "سكني"
  },
  {
    "id": "al-murabba",
    "name_ar": "المربع",
    "name_en": "Al Murabba",
    "municipality": "بلدية الملز",
    "district": "وسط الرياض",
    "description_ar": "الحي التاريخي الذي يضم قصر المربع وقصر الحكم ومعالم تراثية",
    "lat": 24.655,
    "lng": 46.71,
    "character": "تاريخي حكومي"
  },
  {
    "id": "al-futah",
    "name_ar": "الفوطة",
    "name_en": "Al Futah",
    "municipality": "بلدية الملز",
    "district": "وسط الرياض",
    "description_ar": "حي سكني تاريخي قريب من قصر الحكم",
    "lat": 24.66,
    "lng": 46.72,
    "character": "سكني"
  },
  {
    "id": "ar-rafiah",
    "name_ar": "الرفيعة",
    "name_en": "Ar Rafiah",
    "municipality": "بلدية الشميسي",
    "district": "وسط الرياض",
    "description_ar": "حي الرفيعة في وسط الرياض",
    "lat": 24.66,
    "lng": 46.68,
    "character": "سكني"
  },
  {
    "id": "al-hada",
    "name_ar": "الهدا",
    "name_en": "Al Hada",
    "municipality": "بلدية الشميسي",
    "district": "وسط الرياض",
    "description_ar": "حي الهدا في وسط الرياض",
    "lat": 24.655,
    "lng": 46.67,
    "character": "سكني"
  },
  {
    "id": "ash-sharqiyah",
    "name_ar": "الشرقية",
    "name_en": "Ash Sharqiyah",
    "municipality": "بلدية الشميسي",
    "district": "وسط الرياض",
    "description_ar": "حي الشرقية في وسط الرياض",
    "lat": 24.65,
    "lng": 46.69,
    "character": "سكني"
  },
  {
    "id": "an-nasiriyah",
    "name_ar": "الناصرية",
    "name_en": "An Nasiriyah",
    "municipality": "بلدية الشميسي",
    "district": "وسط الرياض",
    "description_ar": "حي تاريخي في وسط الرياض يضم قصر الناصرية",
    "lat": 24.645,
    "lng": 46.685,
    "character": "تاريخي"
  },
  {
    "id": "siyah",
    "name_ar": "صياح",
    "name_en": "Siyah",
    "municipality": "بلدية الشميسي",
    "district": "وسط الرياض",
    "description_ar": "حي صياح في وسط الرياض",
    "lat": 24.64,
    "lng": 46.675,
    "character": "سكني"
  },
  {
    "id": "al-washam",
    "name_ar": "الوشام",
    "name_en": "Al Washam",
    "municipality": "بلدية الشميسي",
    "district": "وسط الرياض",
    "description_ar": "حي الوشام في وسط الرياض",
    "lat": 24.648,
    "lng": 46.665,
    "character": "سكني"
  },
  {
    "id": "an-namudhajiyah",
    "name_ar": "النموذجية",
    "name_en": "An Namudhajiyah",
    "municipality": "بلدية الشميسي",
    "district": "وسط الرياض",
    "description_ar": "حي النموذجية في وسط الرياض",
    "lat": 24.652,
    "lng": 46.66,
    "character": "سكني"
  },
  {
    "id": "al-mutamarat",
    "name_ar": "المؤتمرات",
    "name_en": "Al Mutamarat",
    "municipality": "بلدية الشميسي",
    "district": "وسط الرياض",
    "description_ar": "حي المؤتمرات في وسط الرياض",
    "lat": 24.655,
    "lng": 46.655,
    "character": "حكومي"
  },
  {
    "id": "al-badiah",
    "name_ar": "البديعة",
    "name_en": "Al Badiah",
    "municipality": "بلدية الشميسي",
    "district": "وسط الرياض",
    "description_ar": "حي سكني في وسط الرياض",
    "lat": 24.66,
    "lng": 46.65,
    "character": "سكني"
  },
  {
    "id": "umm-saleem",
    "name_ar": "أم سليم",
    "name_en": "Umm Saleem",
    "municipality": "بلدية الشميسي",
    "district": "وسط الرياض",
    "description_ar": "حي أم سليم في وسط الرياض",
    "lat": 24.665,
    "lng": 46.645,
    "character": "سكني"
  },
  {
    "id": "ash-shumaisi",
    "name_ar": "الشميسي",
    "name_en": "Ash Shumaisi",
    "municipality": "بلدية الشميسي",
    "district": "وسط الرياض",
    "description_ar": "حي شعبي قديم في وسط الرياض",
    "lat": 24.635,
    "lng": 46.675,
    "character": "شعبي"
  },
  {
    "id": "al-jaradiyah",
    "name_ar": "الجرادية",
    "name_en": "Al Jaradiyah",
    "municipality": "بلدية الشميسي",
    "district": "غرب الرياض",
    "description_ar": "حي الجرادية في غرب الرياض",
    "lat": 24.655,
    "lng": 46.635,
    "character": "سكني"
  },
  {
    "id": "al-fakhriyah",
    "name_ar": "الفاخرية",
    "name_en": "Al Fakhriyah",
    "municipality": "بلدية الشميسي",
    "district": "وسط الرياض",
    "description_ar": "حي الفاخرية في وسط الرياض",
    "lat": 24.65,
    "lng": 46.695,
    "character": "سكني"
  },
  {
    "id": "ulaysha",
    "name_ar": "عليشة",
    "name_en": "Ulaysha",
    "municipality": "بلدية الشميسي",
    "district": "وسط الرياض",
    "description_ar": "حي عليشة في وسط الرياض",
    "lat": 24.645,
    "lng": 46.7,
    "character": "سكني"
  },
  {
    "id": "al-uraija",
    "name_ar": "العريجاء",
    "name_en": "Al Uraija",
    "municipality": "بلدية العريجاء",
    "district": "جنوب غرب الرياض",
    "description_ar": "حي سكني كبير في جنوب غرب الرياض",
    "lat": 24.61,
    "lng": 46.63,
    "character": "سكني"
  },
  {
    "id": "al-uraija-central",
    "name_ar": "العريجاء الوسطى",
    "name_en": "Al Uraija Central",
    "municipality": "بلدية العريجاء",
    "district": "جنوب غرب الرياض",
    "description_ar": "حي العريجاء الوسطى في جنوب غرب الرياض",
    "lat": 24.605,
    "lng": 46.625,
    "character": "سكني"
  },
  {
    "id": "al-uraija-west",
    "name_ar": "العريجاء الغربية",
    "name_en": "Al Uraija West",
    "municipality": "بلدية العريجاء",
    "district": "جنوب غرب الرياض",
    "description_ar": "حي العريجاء الغربية في جنوب غرب الرياض",
    "lat": 24.6,
    "lng": 46.61,
    "character": "سكني"
  },
  {
    "id": "ad-duraihimiyah",
    "name_ar": "الدريهمية",
    "name_en": "Ad Duraihimiyah",
    "municipality": "بلدية العريجاء",
    "district": "جنوب غرب الرياض",
    "description_ar": "حي سكني في جنوب غرب الرياض",
    "lat": 24.62,
    "lng": 46.64,
    "character": "سكني"
  },
  {
    "id": "shubra",
    "name_ar": "شبرا",
    "name_en": "Shubra",
    "municipality": "بلدية العريجاء",
    "district": "جنوب غرب الرياض",
    "description_ar": "حي شعبي في جنوب غرب الرياض",
    "lat": 24.615,
    "lng": 46.65,
    "character": "شعبي"
  },
  {
    "id": "as-suwaidi",
    "name_ar": "السويدي",
    "name_en": "As Suwaidi",
    "municipality": "بلدية العريجاء",
    "district": "جنوب غرب الرياض",
    "description_ar": "حي سكني كبير في جنوب غرب الرياض يضم أسواقاً ومطاعم شعبية",
    "lat": 24.625,
    "lng": 46.66,
    "character": "سكني"
  },
  {
    "id": "as-suwaidi-west",
    "name_ar": "السويدي الغربي",
    "name_en": "As Suwaidi West",
    "municipality": "بلدية العريجاء",
    "district": "جنوب غرب الرياض",
    "description_ar": "حي السويدي الغربي في جنوب غرب الرياض",
    "lat": 24.62,
    "lng": 46.65,
    "character": "سكني"
  },
  {
    "id": "dhahrat-al-badiah",
    "name_ar": "ظهرة البديعة",
    "name_en": "Dhahrat Al Badiah",
    "municipality": "بلدية العريجاء",
    "district": "جنوب غرب الرياض",
    "description_ar": "حي ظهرة البديعة في جنوب غرب الرياض",
    "lat": 24.63,
    "lng": 46.635,
    "character": "سكني"
  },
  {
    "id": "sultanah",
    "name_ar": "سلطانة",
    "name_en": "Sultanah",
    "municipality": "بلدية العريجاء",
    "district": "جنوب غرب الرياض",
    "description_ar": "حي سلطانة في جنوب غرب الرياض",
    "lat": 24.635,
    "lng": 46.645,
    "character": "سكني"
  },
  {
    "id": "az-zahrah",
    "name_ar": "الزهرة",
    "name_en": "Az Zahrah",
    "municipality": "بلدية العريجاء",
    "district": "جنوب غرب الرياض",
    "description_ar": "حي الزهرة في جنوب غرب الرياض",
    "lat": 24.64,
    "lng": 46.655,
    "character": "سكني"
  },
  {
    "id": "dhahrat-namar",
    "name_ar": "ظهرة نمار",
    "name_en": "Dhahrat Namar",
    "municipality": "بلدية نمار",
    "district": "جنوب غرب الرياض",
    "description_ar": "حي سكني جديد في جنوب غرب الرياض بالقرب من وادي نمار",
    "lat": 24.56,
    "lng": 46.58,
    "character": "سكني جديد"
  },
  {
    "id": "dirab",
    "name_ar": "ديراب",
    "name_en": "Dirab",
    "municipality": "بلدية نمار",
    "district": "جنوب غرب الرياض",
    "description_ar": "منطقة ريفية جنوب غرب الرياض تضم ملعب ديراب للقولف",
    "lat": 24.52,
    "lng": 46.55,
    "character": "ريفي"
  },
  {
    "id": "namar",
    "name_ar": "نمار",
    "name_en": "Namar",
    "municipality": "بلدية نمار",
    "district": "جنوب غرب الرياض",
    "description_ar": "منطقة في جنوب غرب الرياض تضم وادي نمار الشهير",
    "lat": 24.54,
    "lng": 46.57,
    "character": "سكني"
  },
  {
    "id": "al-hazm",
    "name_ar": "الحزم",
    "name_en": "Al Hazm",
    "municipality": "بلدية نمار",
    "district": "جنوب غرب الرياض",
    "description_ar": "حي الحزم في جنوب غرب الرياض",
    "lat": 24.58,
    "lng": 46.6,
    "character": "سكني"
  },
  {
    "id": "laban",
    "name_ar": "لبن",
    "name_en": "Laban",
    "municipality": "بلدية نمار",
    "district": "جنوب غرب الرياض",
    "description_ar": "حي لبن في جنوب غرب الرياض",
    "lat": 24.59,
    "lng": 46.61,
    "character": "سكني"
  },
  {
    "id": "tuwaiq",
    "name_ar": "طويق",
    "name_en": "Tuwaiq",
    "municipality": "بلدية نمار",
    "district": "غرب الرياض",
    "description_ar": "حي جديد في غرب الرياض يشهد تطوراً عمرانياً سريعاً",
    "lat": 24.61,
    "lng": 46.56,
    "character": "سكني جديد"
  },
  {
    "id": "uhud",
    "name_ar": "أحد",
    "name_en": "Uhud",
    "municipality": "بلدية الشفا",
    "district": "جنوب الرياض",
    "description_ar": "حي أحد في جنوب الرياض",
    "lat": 24.55,
    "lng": 46.65,
    "character": "سكني"
  },
  {
    "id": "ukaz",
    "name_ar": "عكاظ",
    "name_en": "Ukaz",
    "municipality": "بلدية الشفا",
    "district": "جنوب الرياض",
    "description_ar": "حي عكاظ في جنوب الرياض",
    "lat": 24.56,
    "lng": 46.66,
    "character": "سكني"
  },
  {
    "id": "ash-shifa",
    "name_ar": "الشفاء",
    "name_en": "Ash Shifa",
    "municipality": "بلدية الشفا",
    "district": "جنوب الرياض",
    "description_ar": "حي سكني واسع في جنوب الرياض يتميز بالخدمات المتنوعة",
    "lat": 24.57,
    "lng": 46.67,
    "character": "سكني"
  },
  {
    "id": "ash-shifa-district",
    "name_ar": "الشفا",
    "name_en": "Ash Shifa District",
    "municipality": "بلدية الشفا",
    "district": "جنوب الرياض",
    "description_ar": "حي سكني واسع في جنوب الرياض",
    "lat": 24.565,
    "lng": 46.675,
    "character": "سكني"
  },
  {
    "id": "al-marwah",
    "name_ar": "المروة",
    "name_en": "Al Marwah",
    "municipality": "بلدية الشفا",
    "district": "جنوب الرياض",
    "description_ar": "حي المروة في جنوب الرياض",
    "lat": 24.58,
    "lng": 46.68,
    "character": "سكني"
  },
  {
    "id": "badr",
    "name_ar": "بدر",
    "name_en": "Badr",
    "municipality": "بلدية الشفا",
    "district": "جنوب الرياض",
    "description_ar": "حي بدر في جنوب الرياض",
    "lat": 24.59,
    "lng": 46.69,
    "character": "سكني"
  },
  {
    "id": "al-masani",
    "name_ar": "المصانع",
    "name_en": "Al Masani",
    "municipality": "بلدية الشفا",
    "district": "جنوب الرياض",
    "description_ar": "حي المصانع في جنوب الرياض",
    "lat": 24.565,
    "lng": 46.7,
    "character": "صناعي"
  },
  {
    "id": "al-mansuriyah",
    "name_ar": "المنصورية",
    "name_en": "Al Mansuriyah",
    "municipality": "بلدية الشفا",
    "district": "جنوب الرياض",
    "description_ar": "حي المنصورية في جنوب الرياض",
    "lat": 24.575,
    "lng": 46.71,
    "character": "سكني"
  },
  {
    "id": "arid",
    "name_ar": "عريض",
    "name_en": "Arid",
    "municipality": "بلدية الشفا",
    "district": "جنوب الرياض",
    "description_ar": "حي عريض في جنوب الرياض",
    "lat": 24.585,
    "lng": 46.72,
    "character": "سكني"
  },
  {
    "id": "al-amajiyah",
    "name_ar": "العماجية",
    "name_en": "Al Amajiyah",
    "municipality": "بلدية الشفا",
    "district": "جنوب الرياض",
    "description_ar": "حي العماجية في جنوب الرياض",
    "lat": 24.545,
    "lng": 46.655,
    "character": "سكني"
  },
  {
    "id": "khashm-al-an",
    "name_ar": "خشم العان",
    "name_en": "Khashm Al An",
    "municipality": "بلدية السلي",
    "district": "جنوب شرق الرياض",
    "description_ar": "حي خشم العان في جنوب شرق الرياض",
    "lat": 24.6,
    "lng": 46.76,
    "character": "سكني"
  },
  {
    "id": "ad-difa",
    "name_ar": "الدفاع",
    "name_en": "Ad Difa",
    "municipality": "بلدية السلي",
    "district": "جنوب شرق الرياض",
    "description_ar": "حي الدفاع في جنوب شرق الرياض",
    "lat": 24.61,
    "lng": 46.75,
    "character": "عسكري"
  },
  {
    "id": "al-manakh",
    "name_ar": "المناخ",
    "name_en": "Al Manakh",
    "municipality": "بلدية السلي",
    "district": "جنوب شرق الرياض",
    "description_ar": "حي المناخ في جنوب شرق الرياض",
    "lat": 24.605,
    "lng": 46.74,
    "character": "تجاري"
  },
  {
    "id": "as-sali",
    "name_ar": "السلي",
    "name_en": "As Sali",
    "municipality": "بلدية السلي",
    "district": "جنوب شرق الرياض",
    "description_ar": "حي السلي في جنوب شرق الرياض",
    "lat": 24.615,
    "lng": 46.73,
    "character": "سكني"
  },
  {
    "id": "an-nur",
    "name_ar": "النور",
    "name_en": "An Nur",
    "municipality": "بلدية السلي",
    "district": "جنوب شرق الرياض",
    "description_ar": "حي النور في جنوب شرق الرياض",
    "lat": 24.62,
    "lng": 46.72,
    "character": "سكني"
  },
  {
    "id": "al-iskan",
    "name_ar": "الإسكان",
    "name_en": "Al Iskan",
    "municipality": "بلدية السلي",
    "district": "جنوب شرق الرياض",
    "description_ar": "حي الإسكان في جنوب شرق الرياض",
    "lat": 24.625,
    "lng": 46.735,
    "character": "سكني"
  },
  {
    "id": "new-industrial",
    "name_ar": "الصناعية الجديدة",
    "name_en": "New Industrial",
    "municipality": "بلدية السلي",
    "district": "جنوب شرق الرياض",
    "description_ar": "حي الصناعية الجديدة في جنوب شرق الرياض",
    "lat": 24.59,
    "lng": 46.75,
    "character": "صناعي"
  },
  {
    "id": "al-fayha",
    "name_ar": "الفيحاء",
    "name_en": "Al Fayha",
    "municipality": "بلدية السلي",
    "district": "جنوب شرق الرياض",
    "description_ar": "حي الفيحاء في جنوب شرق الرياض",
    "lat": 24.63,
    "lng": 46.74,
    "character": "سكني"
  },
  {
    "id": "al-jazirah",
    "name_ar": "الجزيرة",
    "name_en": "Al Jazirah",
    "municipality": "بلدية السلي",
    "district": "جنوب شرق الرياض",
    "description_ar": "حي الجزيرة في جنوب شرق الرياض",
    "lat": 24.635,
    "lng": 46.725,
    "character": "سكني"
  },
  {
    "id": "as-saadah",
    "name_ar": "السعادة",
    "name_en": "As Saadah",
    "municipality": "بلدية السلي",
    "district": "جنوب شرق الرياض",
    "description_ar": "حي السعادة في جنوب شرق الرياض",
    "lat": 24.618,
    "lng": 46.745,
    "character": "سكني"
  },
  {
    "id": "hit",
    "name_ar": "هيت",
    "name_en": "Hit",
    "municipality": "بلدية السلي",
    "district": "جنوب شرق الرياض",
    "description_ar": "حي هيت في جنوب شرق الرياض",
    "lat": 24.61,
    "lng": 46.755,
    "character": "سكني"
  },
  {
    "id": "al-bariyah",
    "name_ar": "البرية",
    "name_en": "Al Bariyah",
    "municipality": "بلدية السلي",
    "district": "جنوب شرق الرياض",
    "description_ar": "حي البرية في جنوب شرق الرياض",
    "lat": 24.605,
    "lng": 46.765,
    "character": "سكني"
  },
  {
    "id": "al-mashael",
    "name_ar": "المشاعل",
    "name_en": "Al Mashael",
    "municipality": "بلدية السلي",
    "district": "جنوب شرق الرياض",
    "description_ar": "حي المشاعل في جنوب شرق الرياض",
    "lat": 24.595,
    "lng": 46.755,
    "character": "سكني"
  },
  {
    "id": "ad-dubiyah",
    "name_ar": "الدوبية",
    "name_en": "Ad Dubiyah",
    "municipality": "بلدية البطحاء",
    "district": "وسط الرياض",
    "description_ar": "حي الدوبية في وسط الرياض",
    "lat": 24.64,
    "lng": 46.71,
    "character": "شعبي"
  },
  {
    "id": "al-qura",
    "name_ar": "القرى",
    "name_en": "Al Qura",
    "municipality": "بلدية البطحاء",
    "district": "وسط الرياض",
    "description_ar": "حي القرى في وسط الرياض",
    "lat": 24.638,
    "lng": 46.705,
    "character": "شعبي"
  },
  {
    "id": "as-sinaiyah",
    "name_ar": "الصناعية",
    "name_en": "As Sinaiyah",
    "municipality": "بلدية البطحاء",
    "district": "وسط الرياض",
    "description_ar": "حي الصناعية في وسط الرياض",
    "lat": 24.635,
    "lng": 46.715,
    "character": "صناعي"
  },
  {
    "id": "al-wusayta",
    "name_ar": "الوسيطاء",
    "name_en": "Al Wusayta",
    "municipality": "بلدية البطحاء",
    "district": "وسط الرياض",
    "description_ar": "حي الوسيطاء في وسط الرياض",
    "lat": 24.632,
    "lng": 46.708,
    "character": "شعبي"
  },
  {
    "id": "maakal",
    "name_ar": "معكال",
    "name_en": "Maakal",
    "municipality": "بلدية البطحاء",
    "district": "وسط الرياض",
    "description_ar": "حي معكال في وسط الرياض",
    "lat": 24.63,
    "lng": 46.7,
    "character": "تاريخي"
  },
  {
    "id": "al-faysaliyah",
    "name_ar": "الفيصلية",
    "name_en": "Al Faysaliyah",
    "municipality": "بلدية البطحاء",
    "district": "وسط الرياض",
    "description_ar": "حي الفيصلية في وسط الرياض",
    "lat": 24.628,
    "lng": 46.712,
    "character": "سكني"
  },
  {
    "id": "manfuhah",
    "name_ar": "منفوحة",
    "name_en": "Manfuhah",
    "municipality": "بلدية البطحاء",
    "district": "جنوب الرياض",
    "description_ar": "من أقدم أحياء الرياض التاريخية جنوب وسط المدينة",
    "lat": 24.62,
    "lng": 46.705,
    "character": "شعبي"
  },
  {
    "id": "al-mansurah",
    "name_ar": "المنصورة",
    "name_en": "Al Mansurah",
    "municipality": "بلدية البطحاء",
    "district": "وسط الرياض",
    "description_ar": "حي المنصورة في وسط الرياض",
    "lat": 24.625,
    "lng": 46.7,
    "character": "سكني"
  },
  {
    "id": "al-yamamah",
    "name_ar": "اليمامة",
    "name_en": "Al Yamamah",
    "municipality": "بلدية البطحاء",
    "district": "وسط الرياض",
    "description_ar": "حي اليمامة في وسط الرياض",
    "lat": 24.635,
    "lng": 46.695,
    "character": "سكني"
  },
  {
    "id": "salam",
    "name_ar": "سلام",
    "name_en": "Salam",
    "municipality": "بلدية البطحاء",
    "district": "وسط الرياض",
    "description_ar": "حي سلام في وسط الرياض",
    "lat": 24.622,
    "lng": 46.71,
    "character": "شعبي"
  },
  {
    "id": "jabrah",
    "name_ar": "جبرة",
    "name_en": "Jabrah",
    "municipality": "بلدية البطحاء",
    "district": "جنوب الرياض",
    "description_ar": "حي جبرة في جنوب الرياض",
    "lat": 24.615,
    "lng": 46.705,
    "character": "شعبي"
  },
  {
    "id": "utayqah",
    "name_ar": "عتيقة",
    "name_en": "Utayqah",
    "municipality": "بلدية البطحاء",
    "district": "وسط الرياض",
    "description_ar": "حي عتيقة في وسط الرياض",
    "lat": 24.63,
    "lng": 46.69,
    "character": "تاريخي"
  },
  {
    "id": "ghubayra",
    "name_ar": "غبيراء",
    "name_en": "Ghubayra",
    "municipality": "بلدية البطحاء",
    "district": "وسط الرياض",
    "description_ar": "حي غبيراء في وسط الرياض",
    "lat": 24.635,
    "lng": 46.695,
    "character": "شعبي"
  },
  {
    "id": "al-batiha",
    "name_ar": "البطيحا",
    "name_en": "Al Batiha",
    "municipality": "بلدية البطحاء",
    "district": "وسط الرياض",
    "description_ar": "حي البطيحا في وسط الرياض",
    "lat": 24.638,
    "lng": 46.715,
    "character": "تجاري شعبي"
  },
  {
    "id": "al-khalidiyah",
    "name_ar": "الخالدية",
    "name_en": "Al Khalidiyah",
    "municipality": "بلدية البطحاء",
    "district": "وسط الرياض",
    "description_ar": "حي الخالدية في وسط الرياض",
    "lat": 24.642,
    "lng": 46.705,
    "character": "سكني"
  },
  {
    "id": "ad-dirah",
    "name_ar": "الديرة",
    "name_en": "Ad Dirah",
    "municipality": "بلدية البطحاء",
    "district": "وسط الرياض",
    "description_ar": "قلب الرياض التاريخي يضم سوق الزل وقلعة المصمك",
    "lat": 24.634,
    "lng": 46.71,
    "character": "تاريخي تجاري"
  },
  {
    "id": "al-oud",
    "name_ar": "العود",
    "name_en": "Al Oud",
    "municipality": "بلدية البطحاء",
    "district": "وسط الرياض",
    "description_ar": "حي العود في وسط الرياض",
    "lat": 24.64,
    "lng": 46.695,
    "character": "سكني"
  },
  {
    "id": "al-murqab",
    "name_ar": "المرقب",
    "name_en": "Al Murqab",
    "municipality": "بلدية البطحاء",
    "district": "وسط الرياض",
    "description_ar": "حي المرقب في وسط الرياض",
    "lat": 24.645,
    "lng": 46.705,
    "character": "سكني"
  },
  {
    "id": "new-manfuhah",
    "name_ar": "منفوحة الجديدة",
    "name_en": "New Manfuhah",
    "municipality": "بلدية البطحاء",
    "district": "جنوب الرياض",
    "description_ar": "حي منفوحة الجديدة في جنوب الرياض",
    "lat": 24.61,
    "lng": 46.705,
    "character": "سكني"
  },
  {
    "id": "al-aziziyah",
    "name_ar": "العزيزية",
    "name_en": "Al Aziziyah",
    "municipality": "بلدية العزيزية",
    "district": "جنوب الرياض",
    "description_ar": "حي سكني في جنوب الرياض يضم مرافق خدمية متنوعة",
    "lat": 24.58,
    "lng": 46.72,
    "character": "سكني"
  },
  {
    "id": "taybah",
    "name_ar": "طيبة",
    "name_en": "Taybah",
    "municipality": "بلدية العزيزية",
    "district": "جنوب الرياض",
    "description_ar": "حي طيبة في جنوب الرياض",
    "lat": 24.57,
    "lng": 46.73,
    "character": "سكني"
  },
  {
    "id": "al-musfah",
    "name_ar": "المصفاة",
    "name_en": "Al Musfah",
    "municipality": "بلدية العزيزية",
    "district": "جنوب الرياض",
    "description_ar": "حي المصفاة في جنوب الرياض",
    "lat": 24.59,
    "lng": 46.71,
    "character": "سكني"
  },
  {
    "id": "ad-dar-al-bayda",
    "name_ar": "الدار البيضاء",
    "name_en": "Ad Dar Al Bayda",
    "municipality": "بلدية العزيزية",
    "district": "جنوب الرياض",
    "description_ar": "حي الدار البيضاء في جنوب الرياض",
    "lat": 24.56,
    "lng": 46.74,
    "character": "سكني"
  },
  {
    "id": "al-haeer",
    "name_ar": "الحائر",
    "name_en": "Al Haeer",
    "municipality": "بلدية الحائر",
    "district": "جنوب الرياض",
    "description_ar": "منطقة ريفية في أقصى جنوب الرياض",
    "lat": 24.42,
    "lng": 46.74,
    "character": "ريفي"
  },
  {
    "id": "al-ghunamiyah",
    "name_ar": "الغنامية",
    "name_en": "Al Ghunamiyah",
    "municipality": "بلدية الحائر",
    "district": "جنوب الرياض",
    "description_ar": "حي الغنامية في جنوب الرياض",
    "lat": 24.45,
    "lng": 46.72,
    "character": "ريفي"
  },
  {
    "id": "diriyah",
    "name_ar": "الدرعية",
    "name_en": "Diriyah",
    "municipality": "محافظة الدرعية",
    "district": "شمال غرب الرياض",
    "description_ar": "العاصمة التاريخية للدولة السعودية الأولى تضم حي الطريف وحي البجيري التراثيين ومشاريع سياحية ضخمة",
    "lat": 24.734,
    "lng": 46.573,
    "character": "تاريخي سياحي"
  },
  {
    "id": "thumamah",
    "name_ar": "الثمامة",
    "name_en": "Thumamah",
    "municipality": "أمانة الرياض",
    "district": "شمال الرياض",
    "description_ar": "منطقة صحراوية شمال الرياض تشتهر بالرحلات البرية والأنشطة الترفيهية الصحراوية",
    "lat": 25.0,
    "lng": 46.65,
    "character": "ترفيهي صحراوي"
  },
  {
    "id": "jax-district",
    "name_ar": "جاكس",
    "name_en": "JAX District",
    "municipality": "محافظة الدرعية",
    "district": "شمال غرب الرياض",
    "description_ar": "حي فني وإبداعي في الدرعية يضم معارض ومطاعم ومساحات إبداعية",
    "lat": 24.735,
    "lng": 46.575,
    "character": "فني إبداعي"
  },
  {
    "id": "al-bujairi",
    "name_ar": "البجيري",
    "name_en": "Al Bujairi",
    "municipality": "محافظة الدرعية",
    "district": "شمال غرب الرياض",
    "description_ar": "منطقة تراثية وسياحية في الدرعية تضم البجيري تراس بمطاعم عالمية",
    "lat": 24.733,
    "lng": 46.572,
    "character": "تراثي سياحي"
  }
]